{"type": "FeatureCollection", "features": [ {"type": "Feature", "properties": {"norad_id": 66715, "name": "FLOCK 4H-12", "group": "last-30-days", "lat": -51.09591264800707, "lon": 75.65592552854953, "alt_km": 519.2253690241278, "timestamp": "2025-12-20T16:47:35.023240+00:00", "meta": {"OBJECT_NAME": "FLOCK 4H-12", "OBJECT_ID": "2025-276BB", "EPOCH": "2025-12-20T04:21:52.648704", "MEAN_MOTION": 15.18046022, "ECCENTRICITY": 0.00016525, "INCLINATION": 97.44, "RA_OF_ASC_NODE": 65.828, "ARG_OF_PERICENTER": 193.0074, "MEAN_ANOMALY": 167.1117, "EPHEMERIS_TYPE": 0, "CLASSIFICATION_TYPE": "U", "NORAD_CAT_ID": 66715, "ELEMENT_SET_NO": 999, "REV_AT_EPOCH": 356, "BSTAR": 0.00030210398, "MEAN_MOTION_DOT": 6.084e-05, "MEAN_MOTION_DDOT": 0}, "tle": {"line1": "1 66715U 25276BB  25354.18185936  .00006084  00000+0  30210-3 0  9993", "line2": "2 66715  97.4400  65.8280 0001652 193.0074 167.1117 15.18046022  3565"}}, "geometry": {"type": "Point", "coordinates": [75.65592552854953, -51.09591264800707]}}, {"type": "Feature", "properties": {"norad_id": 66716, "name": "FLOCK 4H-13", "group": "last-30-days", "lat": -40.896620878109786, "lon": 72.85734005520784, "alt_km": 519.059134597559, "timestamp": "2025-12-20T16:47:35.023250+00:00", "meta": {"OBJECT_NAME": "FLOCK 4H-13", "OBJECT_ID": "2025-276BC", "EPOCH": "2025-12-20T04:19:11.288064", "MEAN_MOTION": 15.18153955, "ECCENTRICITY": 0.00015195, "INCLINATION": 97.4438, "RA_OF_ASC_NODE": 65.8438, "ARG_OF_PERICENTER": 149.0109, "MEAN_ANOMALY": 211.1215, "EPHEMERIS_TYPE": 0, "CLASSIFICATION_TYPE": "U", "NORAD_CAT_ID": 66716, "ELEMENT_SET_NO": 999, "REV_AT_EPOCH": 325, "BSTAR": 0.00024134799, "MEAN_MOTION_DOT": 4.862e-05, "MEAN_MOTION_DDOT": 0}, "tle": {"line1": "1 66716U 25276BC  25354.17999176  .00004862  00000+0  24135-3 0  9993", "line2": "2 66716  97.4438  65.8438 0001519 149.0109 211.1215 15.18153955  3253"}}, "geometry": {"type": "Point", "coordinates": [72.85734005520784, -40.896620878109786]}}, {"type": "Feature", "properties": {"norad_id": 66717, "name": "FLOCK 4H-14", "group": "last-30-days", "lat": -31.76457048430469, "lon": 70.99780020097796, "alt_km": 518.8916763910456, "timestamp": "2025-12-20T16:47:35.023260+00:00", "meta": {"OBJECT_NAME": "FLOCK 4H-14", "OBJECT_ID": "2025-276BD", "EPOCH": "2025-12-20T10:36:24.086880", "MEAN_MOTION": 15.1819325, "ECCENTRICITY": 0.0002014, "INCLINATION": 97.4423, "RA_OF_ASC_NODE": 66.1018, "ARG_OF_PERICENTER": 146.002, "MEAN_ANOMALY": 214.1344, "EPHEMERIS_TYPE": 0, "CLASSIFICATION_TYPE": "U", "NORAD_CAT_ID": 66717, "ELEMENT_SET_NO": 999, "REV_AT_EPOCH": 254, "BSTAR": -0.0019971, "MEAN_MOTION_DOT": -0.00040639, "MEAN_MOTION_DDOT": 0}, "tle": {"line1": "1 66717U 25276BD  25354.44194545 -.00040639  00000+0 -19971-2 0  9996", "line2": "2 66717  97.4423  66.1018 0002014 146.0020 214.1344 15.18193250  2545"}}, "geometry": {"type": "Point", "coordinates": [70.99780020097796, -31.76457048430469]}}, {"type": "Feature", "properties": {"norad_id": 66718, "name": "FLOCK 4H-15", "group": "last-30-days", "lat": -55.926440206043516, "lon": -124.82519932762604, "alt_km": 520.2727784516537, "timestamp": "2025-12-20T16:47:35.023269+00:00", "meta": {"OBJECT_NAME": "FLOCK 4H-15", "OBJECT_ID": "2025-276BE", "EPOCH": "2025-12-20T01:30:21.849696", "MEAN_MOTION": 15.17073597, "ECCENTRICITY": 0.00030538, "INCLINATION": 97.4434, "RA_OF_ASC_NODE": 65.6942, "ARG_OF_PERICENTER": 283.5024, "MEAN_ANOMALY": 76.5869, "EPHEMERIS_TYPE": 0, "CLASSIFICATION_TYPE": "U", "NORAD_CAT_ID": 66718, "ELEMENT_SET_NO": 999, "REV_AT_EPOCH": 323, "BSTAR": 0.00022690308, "MEAN_MOTION_DOT": 4.427e-05, "MEAN_MOTION_DDOT": 0}, "tle": {"line1": "1 66718U 25276BE  25354.06275289  .00004427  00000+0  22690-3 0  9996", "line2": "2 66718  97.4434  65.6942 0003053 283.5024  76.5869 15.17073597  3232"}}, "geometry": {"type": "Point", "coordinates": [-124.82519932762604, -55.926440206043516]}}, {"type": "Feature", "properties": {"norad_id": 66719, "name": "FLOCK 4H-16", "group": "last-30-days", "lat": -64.00010431207583, "lon": -129.22399199517852, "alt_km": 519.6168621792685, "timestamp": "2025-12-20T16:47:35.023283+00:00", "meta": {"OBJECT_NAME": "FLOCK 4H-16", "OBJECT_ID": "2025-276BF", "EPOCH": "2025-12-20T00:00:02.000160", "MEAN_MOTION": 15.17176766, "ECCENTRICITY": 0.00028776, "INCLINATION": 97.4452, "RA_OF_ASC_NODE": 65.641, "ARG_OF_PERICENTER": 265.1446, "MEAN_ANOMALY": 120.6373, "EPHEMERIS_TYPE": 0, "CLASSIFICATION_TYPE": "U", "NORAD_CAT_ID": 66719, "ELEMENT_SET_NO": 999, "REV_AT_EPOCH": 265, "BSTAR": 0.0012346444, "MEAN_MOTION_DOT": 0.00024517, "MEAN_MOTION_DDOT": 0}, "tle": {"line1": "1 66719U 25276BF  25354.00002315  .00024517  00000+0  12346-2 0  9997", "line2": "2 66719  97.4452  65.6410 0002877 265.1446 120.6373 15.17176766  2658"}}, "geometry": {"type": "Point", "coordinates": [-129.22399199517852, -64.00010431207583]}}, {"type": "Feature", "properties": {"norad_id": 66720, "name": "FLOCK 4H-17", "group": "last-30-days", "lat": -50.749392560458695, "lon": 75.56766535922392, "alt_km": 519.3209672604244, "timestamp": "2025-12-20T16:47:35.023293+00:00", "meta": {"OBJECT_NAME": "FLOCK 4H-17", "OBJECT_ID": "2025-276BG", "EPOCH": "2025-12-20T04:21:46.615392", "MEAN_MOTION": 15.18028916, "ECCENTRICITY": 0.00024739, "INCLINATION": 97.4453, "RA_OF_ASC_NODE": 65.8481, "ARG_OF_PERICENTER": 200.8658, "MEAN_ANOMALY": 159.2476, "EPHEMERIS_TYPE": 0, "CLASSIFICATION_TYPE": "U", "NORAD_CAT_ID": 66720, "ELEMENT_SET_NO": 999, "REV_AT_EPOCH": 325, "BSTAR": 0.00029797788, "MEAN_MOTION_DOT": 5.998e-05, "MEAN_MOTION_DDOT": 0}, "tle": {"line1": "1 66720U 25276BG  25354.18178953  .00005998  00000+0  29798-3 0  9992", "line2": "2 66720  97.4453  65.8481 0002473 200.8658 159.2476 15.18028916  3257"}}, "geometry": {"type": "Point", "coordinates": [75.56766535922392, -50.749392560458695]}}, {"type": "Feature", "properties": {"norad_id": 66721, "name": "FLOCK 4H-18", "group": "last-30-days", "lat": -58.52576910639451, "lon": -126.0163449058968, "alt_km": 520.7524517868096, "timestamp": "2025-12-20T16:47:35.023303+00:00", "meta": {"OBJECT_NAME": "FLOCK 4H-18", "OBJECT_ID": "2025-276BH", "EPOCH": "2025-12-20T10:59:32.807040", "MEAN_MOTION": 15.1711311, "ECCENTRICITY": 0.0002559, "INCLINATION": 97.4389, "RA_OF_ASC_NODE": 66.0699, "ARG_OF_PERICENTER": 297.2553, "MEAN_ANOMALY": 62.8419, "EPHEMERIS_TYPE": 0, "CLASSIFICATION_TYPE": "U", "NORAD_CAT_ID": 66721, "ELEMENT_SET_NO": 999, "REV_AT_EPOCH": 329, "BSTAR": 0.00032289, "MEAN_MOTION_DOT": 6.336e-05, "MEAN_MOTION_DDOT": 0}, "tle": {"line1": "1 66721U 25276BH  25354.45801860  .00006336  00000+0  32289-3 0  9999", "line2": "2 66721  97.4389  66.0699 0002559 297.2553  62.8419 15.17113110  3299"}}, "geometry": {"type": "Point", "coordinates": [-126.0163449058968, -58.52576910639451]}}, {"type": "Feature", "properties": {"norad_id": 66722, "name": "FLOCK 4H-19", "group": "last-30-days", "lat": -36.870714894336466, "lon": 71.96878615499764, "alt_km": 519.0715979224806, "timestamp": "2025-12-20T16:47:35.023313+00:00", "meta": {"OBJECT_NAME": "FLOCK 4H-19", "OBJECT_ID": "2025-276BJ", "EPOCH": "2025-12-20T10:37:46.411392", "MEAN_MOTION": 15.18206931, "ECCENTRICITY": 0.0002144, "INCLINATION": 97.4397, "RA_OF_ASC_NODE": 66.0918, "ARG_OF_PERICENTER": 162.4254, "MEAN_ANOMALY": 197.7055, "EPHEMERIS_TYPE": 0, "CLASSIFICATION_TYPE": "U", "NORAD_CAT_ID": 66722, "ELEMENT_SET_NO": 999, "REV_AT_EPOCH": 258, "BSTAR": 0.00051599, "MEAN_MOTION_DOT": 0.00010494, "MEAN_MOTION_DDOT": 0}, "tle": {"line1": "1 66722U 25276BJ  25354.44289828  .00010494  00000+0  51599-3 0  9998", "line2": "2 66722  97.4397  66.0918 0002144 162.4254 197.7055 15.18206931  2584"}}, "geometry": {"type": "Point", "coordinates": [71.96878615499764, -36.870714894336466]}}, {"type": "Feature", "properties": {"norad_id": 66723, "name": "FLOCK 4H-20", "group": "last-30-days", "lat": -34.04212334181234, "lon": 71.42519821299068, "alt_km": 518.9039014279724, "timestamp": "2025-12-20T16:47:35.023324+00:00", "meta": {"OBJECT_NAME": "FLOCK 4H-20", "OBJECT_ID": "2025-276BK", "EPOCH": "2025-12-20T10:37:01.854912", "MEAN_MOTION": 15.18261675, "ECCENTRICITY": 0.0002666, "INCLINATION": 97.4434, "RA_OF_ASC_NODE": 66.1048, "ARG_OF_PERICENTER": 179.3997, "MEAN_ANOMALY": 180.724, "EPHEMERIS_TYPE": 0, "CLASSIFICATION_TYPE": "U", "NORAD_CAT_ID": 66723, "ELEMENT_SET_NO": 999, "REV_AT_EPOCH": 254, "BSTAR": 0.00034551, "MEAN_MOTION_DOT": 7.013e-05, "MEAN_MOTION_DDOT": 0}, "tle": {"line1": "1 66723U 25276BK  25354.44238258  .00007013  00000+0  34551-3 0  9992", "line2": "2 66723  97.4434  66.1048 0002666 179.3997 180.7240 15.18261675  2542"}}, "geometry": {"type": "Point", "coordinates": [71.42519821299068, -34.04212334181234]}}, {"type": "Feature", "properties": {"norad_id": 66724, "name": "FLOCK 4H-21", "group": "last-30-days", "lat": -31.58512210572354, "lon": 70.95452991197115, "alt_km": 518.4807629748775, "timestamp": "2025-12-20T16:47:35.023336+00:00", "meta": {"OBJECT_NAME": "FLOCK 4H-21", "OBJECT_ID": "2025-276BL", "EPOCH": "2025-12-20T04:16:46.729632", "MEAN_MOTION": 15.18317621, "ECCENTRICITY": 0.00023322, "INCLINATION": 97.44, "RA_OF_ASC_NODE": 65.8332, "ARG_OF_PERICENTER": 176.4825, "MEAN_ANOMALY": 183.6426, "EPHEMERIS_TYPE": 0, "CLASSIFICATION_TYPE": "U", "NORAD_CAT_ID": 66724, "ELEMENT_SET_NO": 999, "REV_AT_EPOCH": 250, "BSTAR": 0.00022070857, "MEAN_MOTION_DOT": 4.461e-05, "MEAN_MOTION_DDOT": 0}, "tle": {"line1": "1 66724U 25276BL  25354.17831863  .00004461  00000+0  22071-3 0  9992", "line2": "2 66724  97.4400  65.8332 0002332 176.4825 183.6426 15.18317621  2503"}}, "geometry": {"type": "Point", "coordinates": [70.95452991197115, -31.58512210572354]}}]}